OBJECT_NAME,OBJECT_ID,EPOCH,MEAN_MOTION,ECCENTRICITY,INCLINATION,RA_OF_ASC_NODE,ARG_OF_PERICENTER,MEAN_ANOMALY,EPHEMERIS_TYPE,CLASSIFICATION_TYPE,NORAD_CAT_ID,ELEMENT_SET_NO,REV_AT_EPOCH,BSTAR,MEAN_MOTION_DOT,MEAN_MOTION_DDOT
SWARM A,2013-067B,2026-07-16T02:53:34.667232,15.51468913,.0003334,87.3295,45.4821,93.3939,266.7704,0,U,39452,999,71073,.93114E-4,.5538E-4,0
SWARM C,2013-067C,2026-07-16T02:53:26.644128,15.51468260,.0003328,87.3295,44.0630,93.6316,266.5326,0,U,39453,999,71069,.94319E-4,.5609E-4,0
BRITE-CA1 (TORONTO),2014-033L,2026-07-15T20:18:13.453056,14.72723276,.0078484,97.9773,325.2513,184.1727,175.8836,0,U,40020,999,64643,.84679E-4,.513E-5,0
OCO 2,2014-035A,2026-07-15T22:16:02.428032,14.57132529,.00014384,98.2020,137.7844,81.3244,278.8117,0,U,40059,999,64023,.46379693E-4,.164E-5,0
BRITE-PL2 (HEWELIUSZ),2014-049B,2026-07-16T02:14:25.453824,14.94688246,.0014249,97.9120,309.3212,19.2816,340.8940,0,U,40119,999,64576,.48579E-4,.468E-5,0
MMS 1,2015-011A,2026-07-16T06:00:02.000160,0.28308437,.8304629,72.5031,348.4171,168.1170,23.0456,0,U,40482,999,136,0,-.1435E-4,0
MMS 2,2015-011B,2026-07-16T06:00:02.000160,0.28308342,.8307443,72.5071,348.4161,168.1198,23.0328,0,U,40483,999,136,0,-.1436E-4,0
MMS 3,2015-011C,2026-07-16T06:00:02.000160,0.28308323,.8305814,72.5068,348.4280,168.1275,23.0069,0,U,40484,999,133,0,-.1435E-4,0
MMS 4,2015-011D,2026-07-16T06:00:02.000160,0.28311173,.8305651,72.5025,348.4113,168.1359,23.0063,0,U,40485,999,139,0,-.1435E-4,0
ASTROSAT,2015-052A,2026-07-16T03:40:32.960064,14.82553079,.000739,5.9975,306.8559,88.5039,271.5935,0,U,40930,999,58413,.52606E-4,.1103E-4,0
DAMPE,2015-078A,2026-07-16T04:35:09.790656,15.30855621,.0011466,97.4555,202.8022,342.0152,18.0681,0,U,41173,999,58898,.31569E-4,.864E-5,0
PISAT,2016-059B,2026-07-15T22:57:17.027712,14.69030442,.0030459,97.8191,196.1748,112.4897,247.9539,0,U,41784,999,52396,.81603E-4,.435E-5,0
HXMT (HUIYAN),2017-034A,2026-07-16T00:13:12.237024,15.18692866,.0032202,43.0154,22.5259,325.8527,34.0250,0,U,42758,999,50204,.11623E-3,.2239E-4,0
FLYING LAPTOP,2017-042G,2026-07-16T04:18:56.295072,15.01315973,.0019656,97.4808,351.6221,29.3910,330.8416,0,U,42831,999,49080,.13845E-3,.1731E-4,0
ZHANGHENG 1-01 (CSES-1),2018-015C,2026-07-16T05:16:36.840576,15.20615587,.0016475,97.6892,3.4588,161.4156,198.7683,0,U,43194,999,46905,.17685E-3,.3817E-4,0
SALSAT,2020-068K,2026-07-15T23:41:54.574080,15.30178734,.0009305,97.8856,201.8148,189.9449,170.1607,0,U,46495,999,31976,.14039E-3,.4018E-4,0
IXPE,2021-121A,2026-07-16T04:00:01.998720,15.10494247,.000737,0.2306,97.6697,159.8311,125.4377,0,U,49954,999,556,.36899E-3,.7186E-4,0
SMILE,2026-109A,2026-07-13T23:01:31.580256,0.47500629,.83137076,70.0512,206.6048,286.9544,0.1879,0,U,69123,999,6,0,.936E-5,0
