SWARM A                 
1 39452U 13067B   26197.12054013  .00005538  00000+0  93114-4 0  9993
2 39452  87.3295  45.4821 0003334  93.3939 266.7704 15.51468913710735
SWARM C                 
1 39453U 13067C   26197.12044727  .00005609  00000+0  94319-4 0  9992
2 39453  87.3295  44.0630 0003328  93.6316 266.5326 15.51468260710692
BRITE-CA1 (TORONTO)     
1 40020U 14033L   26196.84598904  .00000513  00000+0  84679-4 0  9994
2 40020  97.9773 325.2513 0078484 184.1727 175.8836 14.72723276646434
OCO 2                   
1 40059U 14035A   26196.92780588  .00000164  00000+0  46380-4 0  9997
2 40059  98.2020 137.7844 0001438  81.3244 278.8117 14.57132529640231
BRITE-PL2 (HEWELIUSZ)   
1 40119U 14049B   26197.09335016  .00000468  00000+0  48579-4 0  9999
2 40119  97.9120 309.3212 0014249  19.2816 340.8940 14.94688246645760
MMS 1                   
1 40482U 15011A   26197.25002315 -.00001435  00000+0  00000+0 0  9991
2 40482  72.5031 348.4171 8304629 168.1170  23.0456  0.28308437  1367
MMS 2                   
1 40483U 15011B   26197.25002315 -.00001436  00000+0  00000+0 0  9993
2 40483  72.5071 348.4161 8307443 168.1198  23.0328  0.28308342  1361
MMS 3                   
1 40484U 15011C   26197.25002315 -.00001435  00000+0  00000+0 0  9993
2 40484  72.5068 348.4280 8305814 168.1275  23.0069  0.28308323  1334
MMS 4                   
1 40485U 15011D   26197.25002315 -.00001435  00000+0  00000+0 0  9994
2 40485  72.5025 348.4113 8305651 168.1359  23.0063  0.28311173  1392
ASTROSAT                
1 40930U 15052A   26197.15315926  .00001103  00000+0  52606-4 0  9993
2 40930   5.9975 306.8559 0007390  88.5039 271.5935 14.82553079584138
DAMPE                   
1 41173U 15078A   26197.19108554  .00000864  00000+0  31569-4 0  9990
2 41173  97.4555 202.8022 0011466 342.0152  18.0681 15.30855621588982
PISAT                   
1 41784U 16059B   26196.95644708  .00000435  00000+0  81603-4 0  9995
2 41784  97.8191 196.1748 0030459 112.4897 247.9539 14.69030442523967
HXMT (HUIYAN)           
1 42758U 17034A   26197.00916941  .00002239  00000+0  11623-3 0  9997
2 42758  43.0154  22.5259 0032202 325.8527  34.0250 15.18692866502048
FLYING LAPTOP           
1 42831U 17042G   26197.17981823  .00001731  00000+0  13845-3 0  9991
2 42831  97.4808 351.6221 0019656  29.3910 330.8416 15.01315973490808
ZHANGHENG 1-01 (CSES-1) 
1 43194U 18015C   26197.21987084  .00003817  00000+0  17685-3 0  9998
2 43194  97.6892   3.4588 0016475 161.4156 198.7683 15.20615587469055
SALSAT                  
1 46495U 20068K   26196.98743720  .00004018  00000+0  14039-3 0  9990
2 46495  97.8856 201.8148 0009305 189.9449 170.1607 15.30178734319765
IXPE                    
1 49954U 21121A   26197.16668980  .00007186  00000+0  36899-3 0  9996
2 49954   0.2306  97.6697 0007370 159.8311 125.4377 15.10494247  5565
SMILE                   
1 69123U 26109A   26194.95939329  .00000936  00000+0  00000+0 0  9996
2 69123  70.0512 206.6048 8313707 286.9544   0.1879  0.47500629    65
